ONEWEB-0160             
1 48060U 21025U   24010.37488966 -.00000287  00000+0 -82146-3 0  9998
2 48060  87.9012 137.1368 0001806 139.3157 220.8107 13.13469598136885
ONEWEB-0163             
1 48061U 21025V   24010.36061264  .00000016  00000+0  79558-5 0  9999
2 48061  87.9011 137.1366 0001647  95.1446 264.9871 13.13470812137009
ONEWEB-0159             
1 48062U 21025W   24010.42568688  .00000220  00000+0  56714-3 0  9993
2 48062  87.9010 137.1094 0001413  95.1911 264.9379 13.13469811136936
ONEWEB-0164             
1 48063U 21025X   24010.40823406  .00000378  00000+0  10003-2 0  9998
2 48063  87.9008 137.1217 0001706 106.4400 253.6917 13.13468432136914
ONEWEB-0167             
1 48064U 21025Y   24010.43760410 -.00000098  00000+0 -30272-3 0  9999
2 48064  87.9011 137.1259 0001581  98.7864 261.3444 13.13470689136900
ONEWEB-0166             
1 48065U 21025Z   24010.38282581 -.00010748  00000+0 -29478-1 0  9999
2 48065  87.9005 137.1261 0000960  91.0450 269.0789 13.13525946136975
ONEWEB-0151             
1 48066U 21025AA  24010.38442978 -.00000221  00000+0 -64143-3 0  9993
2 48066  87.9008 137.1355 0001779 107.6246 252.5078 13.13470701136919
ONEWEB-0170             
1 48067U 21025AB  24010.39235323  .00000027  00000+0  38931-4 0  9998
2 48067  87.9008 137.1350 0002112 118.4277 241.7065 13.13470733136877
